GLOBALSTAR M068         
1 32266U 07048D   25338.18669432 -.00000084  00000+0  11039-3 0  9997
2 32266  51.9863 144.0353 0001956 123.1029  48.1855 12.62834363839034
GLOBALSTAR M079         
1 37188U 10054A   25338.01939807 -.00000084  00000+0  11052-3 0  9999
2 37188  52.0057 342.7902 0000212   3.2814  25.1573 12.62268912697901
GLOBALSTAR M074         
1 37189U 10054B   25338.28005741 -.00000091  00000+0  70254-4 0  9998
2 37189  52.0035 341.2926 0000413  58.6432 314.7028 12.62263834698542
GLOBALSTAR M076         
1 37190U 10054C   25338.30680916 -.00000090  00000+0  74780-4 0  9993
2 37190  52.0048 341.3991 0000423  33.7435 339.9544 12.62267734698263
GLOBALSTAR M077         
1 37191U 10054D   25336.30079544 -.00000079  00000+0  35254-4 0  9991
2 37191  52.0116 319.4726 0017672 313.8474 152.6760 11.82670137698122
GLOBALSTAR M075         
1 37192U 10054E   25338.33785940 -.00000088  00000+0  88991-4 0  9997
2 37192  51.9967  23.4643 0000396 114.4758 341.9174 12.62270087697333
GLOBALSTAR M073         
1 37193U 10054F   25338.16166439 -.00000097  00000+0  38311-4 0  9996
2 37193  52.0072 297.9534 0000536  28.4967 344.8244 12.62264778699301
GLOBALSTAR M083         
1 37739U 11033A   25338.12530281 -.00000070  00000+0  18607-3 0  9992
2 37739  51.9854 246.5598 0000720  52.0931  97.8597 12.62265156668316
GLOBALSTAR M088         
1 37740U 11033B   25338.26213812 -.00000091  00000+0  69659-4 0  9994
2 37740  52.0187 152.0972 0001123  99.3097  71.8792 12.62270903663872
GLOBALSTAR M091         
1 37741U 11033C   25338.11719839 -.00000102  00000+0  12473-4 0  9994
2 37741  51.9986 115.7921 0000859 119.4692  52.2308 12.62262381664641
GLOBALSTAR M085         
1 37742U 11033D   25338.31268340 -.00000104  00000+0  59232-6 0  9991
2 37742  52.0141  66.3181 0000568 142.7389 258.3419 12.62267036665189
GLOBALSTAR M081         
1 37743U 11033E   25338.25677779 -.00000117  00000+0 -73738-4 0  9995
2 37743  51.9967  69.1448 0000512 120.5537 266.8213 12.62270558665324
GLOBALSTAR M089         
1 37744U 11033F   25338.30744549 -.00000082  00000+0  12267-3 0  9991
2 37744  51.9953  23.1871 0000550  83.6826 354.8761 12.62261818666171
GLOBALSTAR M084         
1 38040U 11080A   25338.17777146 -.00000064  00000+0  22318-3 0  9995
2 38040  52.0006 250.9621 0001070  57.1549  90.6524 12.62266196644139
GLOBALSTAR M080         
1 38041U 11080B   25338.23214591 -.00000073  00000+0  17101-3 0  9997
2 38041  52.0059 252.4470 0000640  98.9042  66.1435 12.62271783644261
GLOBALSTAR M082         
1 38042U 11080C   25338.08903198 -.00000052  00000+0  28672-3 0  9991
2 38042  52.0059 208.3633 0000820  94.2021  69.7900 12.62265801644955
GLOBALSTAR M092         
1 38043U 11080D   25338.29605851 -.00000096  00000+0  43694-4 0  9990
2 38043  52.0098 298.1187 0000533  56.8723  87.8652 12.62267898643439
GLOBALSTAR M090         
1 38044U 11080E   25337.94391630 -.00000050  00000+0  29900-3 0  9992
2 38044  52.0104 202.6983 0000847  75.5520  27.6460 12.62265093645057
GLOBALSTAR M086         
1 38045U 11080F   25338.05787039 -.00000060  00000+0  24278-3 0  9992
2 38045  51.9878 202.5988 0001218  21.2704 129.1148 12.62280633645017
GLOBALSTAR M097         
1 39072U 13005A   25338.13199745 -.00000115  00000+0 -61075-4 0  9991
2 39072  52.0032 117.0995 0000732 103.5668 256.5280 12.62267889592272
GLOBALSTAR M093         
1 39073U 13005B   25338.10593100 -.00000115  00000+0 -62320-4 0  9996
2 39073  52.0096 110.4525 0000523 115.0935 244.9986 12.62270925592226
GLOBALSTAR M094         
1 39074U 13005C   25338.26411197 -.00000091  00000+0  73691-4 0  9994
2 39074  51.9980  24.2824 0000159 145.3669 214.7208 12.62265075593858
GLOBALSTAR M096         
1 39075U 13005D   25338.19800955 -.00000098  00000+0  32142-4 0  9994
2 39075  52.0084  73.1292 0000502 137.9099 222.1806 12.62269162592761
GLOBALSTAR M078         
1 39076U 13005E   25338.25124410 -.00000090  00000+0  75923-4 0  9993
2 39076  51.9841 157.2498 0001140 143.8157 216.2787 12.62272384591393
GLOBALSTAR M095         
1 39077U 13005F   25338.19824711 -.00000091  00000+0  69007-4 0  9995
2 39077  52.0050 154.7375 0000768 116.8199 243.2746 12.62267190591243
GLOBALSTAR M087         
1 52888U 22064A   25338.29041768 -.00000093  00000+0  61921-4 0  9998
2 52888  52.0010 295.8061 0000332  37.8863 322.2027 12.62260849166523
